[Satellite]
VERSION=1.1
NAME=SL-14 R/B
NICKNAME=SL-14 R/B
TLE1=1 18153U 87055B   20158.12607626  .00000058  00000-0  41199-5 0  9991
TLE2=2 18153  82.4990 165.8174 0023093 108.0521 252.3213 14.83287960779186
STATUS=0
